[{"OBJECT_NAME":"STARLINK-32498","OBJECT_ID":"2024-210H","EPOCH":"2026-03-09T14:02:34.810368","MEAN_MOTION":15.27605242,"ECCENTRICITY":0.0001894,"INCLINATION":43.0044,"RA_OF_ASC_NODE":165.7411,"ARG_OF_PERICENTER":285.7197,"MEAN_ANOMALY":74.3445,"EPHEMERIS_TYPE":0,"CLASSIFICATION_TYPE":"U","NORAD_CAT_ID":61966,"ELEMENT_SET_NO":999,"REV_AT_EPOCH":7506,"BSTAR":0.00082165,"MEAN_MOTION_DOT":0.00022434,"MEAN_MOTION_DDOT":0},{"OBJECT_NAME":"PELICAN-6","OBJECT_ID":"2025-276AP","EPOCH":"2026-03-09T16:58:12.890496","MEAN_MOTION":15.2637798,"ECCENTRICITY":0.0003569,"INCLINATION":97.4276,"RA_OF_ASC_NODE":144.2072,"ARG_OF_PERICENTER":157.8575,"MEAN_ANOMALY":202.2819,"EPHEMERIS_TYPE":0,"CLASSIFICATION_TYPE":"U","NORAD_CAT_ID":66703,"ELEMENT_SET_NO":999,"REV_AT_EPOCH":1533,"BSTAR":0.0029725783,"MEAN_MOTION_DOT":0.00077979,"MEAN_MOTION_DDOT":0}]
